[{"OBJECT_NAME":"SORCE","OBJECT_ID":"2003-004A","EPOCH":"2026-03-09T10:24:05.899968","MEAN_MOTION":15.03094555,"ECCENTRICITY":0.00159303,"INCLINATION":39.9899,"RA_OF_ASC_NODE":110.5611,"ARG_OF_PERICENTER":53.0009,"MEAN_ANOMALY":307.2241,"EPHEMERIS_TYPE":0,"CLASSIFICATION_TYPE":"U","NORAD_CAT_ID":27651,"ELEMENT_SET_NO":999,"REV_AT_EPOCH":25688,"BSTAR":0.00029572763,"MEAN_MOTION_DOT":3.92e-5,"MEAN_MOTION_DDOT":0},{"OBJECT_NAME":"STARLINK-6380","OBJECT_ID":"2023-099S","EPOCH":"2026-03-09T12:33:16.917408","MEAN_MOTION":15.02540942,"ECCENTRICITY":0.00014676,"INCLINATION":43.0018,"RA_OF_ASC_NODE":249.6909,"ARG_OF_PERICENTER":272.2742,"MEAN_ANOMALY":87.7932,"EPHEMERIS_TYPE":0,"CLASSIFICATION_TYPE":"U","NORAD_CAT_ID":57344,"ELEMENT_SET_NO":999,"REV_AT_EPOCH":14609,"BSTAR":-0.00024606554,"MEAN_MOTION_DOT":-3.526e-5,"MEAN_MOTION_DDOT":0}]
