SORCE                   
1 27651U 03004A   26068.43340162  .00003920  00000+0  29573-3 0  9995
2 27651  39.9899 110.5611 0015930  53.0009 307.2241 15.03094555256885
STARLINK-6380           
1 57344U 23099S   26068.52311247 -.00003526  00000+0 -24607-3 0  9992
2 57344  43.0018 249.6909 0001467 272.2742  87.7932 15.02540942146092
